{
  "links" : {
    "next" : "https://api.nasa.gov/neo/rest/v1/feed?start_date=2006-11-23&end_date=2006-11-23&detailed=true&api_key=t0TVs3DtDT2H8Oy2Zy8m2eVrNsAVKAexjcZXUckd",
    "prev" : "https://api.nasa.gov/neo/rest/v1/feed?start_date=2006-11-21&end_date=2006-11-21&detailed=true&api_key=t0TVs3DtDT2H8Oy2Zy8m2eVrNsAVKAexjcZXUckd",
    "self" : "https://api.nasa.gov/neo/rest/v1/feed?start_date=2006-11-22&end_date=2006-11-22&detailed=true&api_key=t0TVs3DtDT2H8Oy2Zy8m2eVrNsAVKAexjcZXUckd"
  },
  "element_count" : 10,
  "near_earth_objects" : {
    "2006-11-22" : [ {
      "links" : {
        "self" : "https://api.nasa.gov/neo/rest/v1/neo/3362875?api_key=t0TVs3DtDT2H8Oy2Zy8m2eVrNsAVKAexjcZXUckd"
      },
      "neo_reference_id" : "3362875",
      "name" : "(2006 WG130)",
      "nasa_jpl_url" : "http://ssd.jpl.nasa.gov/sbdb.cgi?sstr=3362875",
      "absolute_magnitude_h" : 24.7,
      "estimated_diameter" : {
        "kilometers" : {
          "estimated_diameter_min" : 0.0305179233,
          "estimated_diameter_max" : 0.0682401509
        },
        "meters" : {
          "estimated_diameter_min" : 30.5179232594,
          "estimated_diameter_max" : 68.2401509401
        },
        "miles" : {
          "estimated_diameter_min" : 0.0189629525,
          "estimated_diameter_max" : 0.0424024508
        },
        "feet" : {
          "estimated_diameter_min" : 100.1244233463,
          "estimated_diameter_max" : 223.8850168104
        }
      },
      "is_potentially_hazardous_asteroid" : false,
      "close_approach_data" : [ {
        "close_approach_date" : "2006-11-22",
        "epoch_date_close_approach" : 1164182400000,
        "relative_velocity" : {
          "kilometers_per_second" : "12.1007248933",
          "kilometers_per_hour" : "43562.6096159336",
          "miles_per_hour" : "27068.1115138561"
        },
        "miss_distance" : {
          "astronomical" : "0.0365477543",
          "lunar" : "14.2170763016",
          "kilometers" : "5467466",
          "miles" : "3397326"
        },
        "orbiting_body" : "Earth"
      } ],
      "orbital_data" : {
        "orbit_id" : "6",
        "orbit_determination_date" : "2017-04-06 09:07:27",
        "orbit_uncertainty" : "9",
        "minimum_orbit_intersection" : ".030538",
        "jupiter_tisserand_invariant" : "3.229",
        "epoch_osculation" : "2454067.5",
        "eccentricity" : ".5993325754839774",
        "semi_major_axis" : "2.407365271626892",
        "inclination" : "11.27766597147078",
        "ascending_node_longitude" : "64.06730846358022",
        "orbital_period" : "1364.304820416754",
        "perihelion_distance" : ".9645528432520618",
        "perihelion_argument" : "325.3674884371886",
        "aphelion_distance" : "3.850177700001721",
        "perihelion_time" : "2454038.963840122235",
        "mean_anomaly" : "7.529855060438255",
        "mean_motion" : ".2638706501748127",
        "equinox" : "J2000"
      }
    }, {
      "links" : {
        "self" : "https://api.nasa.gov/neo/rest/v1/neo/3363347?api_key=t0TVs3DtDT2H8Oy2Zy8m2eVrNsAVKAexjcZXUckd"
      },
      "neo_reference_id" : "3363347",
      "name" : "(2006 XX)",
      "nasa_jpl_url" : "http://ssd.jpl.nasa.gov/sbdb.cgi?sstr=3363347",
      "absolute_magnitude_h" : 23.4,
      "estimated_diameter" : {
        "kilometers" : {
          "estimated_diameter_min" : 0.0555334912,
          "estimated_diameter_max" : 0.1241766613
        },
        "meters" : {
          "estimated_diameter_min" : 55.5334911581,
          "estimated_diameter_max" : 124.1766612574
        },
        "miles" : {
          "estimated_diameter_min" : 0.0345069009,
          "estimated_diameter_max" : 0.0771597762
        },
        "feet" : {
          "estimated_diameter_min" : 182.1964991311,
          "estimated_diameter_max" : 407.4037573197
        }
      },
      "is_potentially_hazardous_asteroid" : false,
      "close_approach_data" : [ {
        "close_approach_date" : "2006-11-22",
        "epoch_date_close_approach" : 1164182400000,
        "relative_velocity" : {
          "kilometers_per_second" : "6.837098799",
          "kilometers_per_hour" : "24613.5556763703",
          "miles_per_hour" : "15293.9063034647"
        },
        "miss_distance" : {
          "astronomical" : "0.0809413694",
          "lunar" : "31.4861927032",
          "kilometers" : "12108657",
          "miles" : "7523970.5"
        },
        "orbiting_body" : "Earth"
      } ],
      "orbital_data" : {
        "orbit_id" : "14",
        "orbit_determination_date" : "2017-04-06 09:07:26",
        "orbit_uncertainty" : "7",
        "minimum_orbit_intersection" : ".0794922",
        "jupiter_tisserand_invariant" : "3.181",
        "epoch_osculation" : "2458000.5",
        "eccentricity" : ".5826842347156093",
        "semi_major_axis" : "2.537919066039408",
        "inclination" : "5.241605852367598",
        "ascending_node_longitude" : "81.25983409793885",
        "orbital_period" : "1476.777542705895",
        "perihelion_distance" : "1.059113637274082",
        "perihelion_argument" : "337.5213592210093",
        "aphelion_distance" : "4.016724494804734",
        "perihelion_time" : "2458492.002724728212",
        "mean_anomaly" : "240.1844043633356",
        "mean_motion" : ".2437740211977852",
        "equinox" : "J2000"
      }
    }, {
      "links" : {
        "self" : "https://api.nasa.gov/neo/rest/v1/neo/3435084?api_key=t0TVs3DtDT2H8Oy2Zy8m2eVrNsAVKAexjcZXUckd"
      },
      "neo_reference_id" : "3435084",
      "name" : "(2008 UP100)",
      "nasa_jpl_url" : "http://ssd.jpl.nasa.gov/sbdb.cgi?sstr=3435084",
      "absolute_magnitude_h" : 23.9,
      "estimated_diameter" : {
        "kilometers" : {
          "estimated_diameter_min" : 0.04411182,
          "estimated_diameter_max" : 0.0986370281
        },
        "meters" : {
          "estimated_diameter_min" : 44.1118199997,
          "estimated_diameter_max" : 98.6370281305
        },
        "miles" : {
          "estimated_diameter_min" : 0.0274098057,
          "estimated_diameter_max" : 0.0612901888
        },
        "feet" : {
          "estimated_diameter_min" : 144.7238235278,
          "estimated_diameter_max" : 323.6123073718
        }
      },
      "is_potentially_hazardous_asteroid" : false,
      "close_approach_data" : [ {
        "close_approach_date" : "2006-11-22",
        "epoch_date_close_approach" : 1164182400000,
        "relative_velocity" : {
          "kilometers_per_second" : "24.1556245794",
          "kilometers_per_hour" : "86960.2484858648",
          "miles_per_hour" : "54033.7166216753"
        },
        "miss_distance" : {
          "astronomical" : "0.4893954119",
          "lunar" : "190.3748168945",
          "kilometers" : "73212512",
          "miles" : "45492144"
        },
        "orbiting_body" : "Earth"
      } ],
      "orbital_data" : {
        "orbit_id" : "13",
        "orbit_determination_date" : "2017-04-06 09:02:20",
        "orbit_uncertainty" : "8",
        "minimum_orbit_intersection" : ".0403774",
        "jupiter_tisserand_invariant" : "4.343",
        "epoch_osculation" : "2454778.5",
        "eccentricity" : ".4152241700933654",
        "semi_major_axis" : "1.550929941096031",
        "inclination" : "5.855362065738268",
        "ascending_node_longitude" : "232.155177676366",
        "orbital_period" : "705.483234191221",
        "perihelion_distance" : ".9069463434314793",
        "perihelion_argument" : "109.2379985438077",
        "aphelion_distance" : "2.194913538760582",
        "perihelion_time" : "2454726.507312265694",
        "mean_anomaly" : "26.53127200933145",
        "mean_motion" : ".5102885264349487",
        "equinox" : "J2000"
      }
    } ]
  }
}